STARLINK-32568          
1 62128U 24222Q   26068.53626012  .00039010  00000+0  14201-2 0  9990
2 62128  42.9983 137.2058 0001206 271.2588  88.8126 15.27570226 72463
TEVEL2-2                
1 63219U 25052K   26068.64848259  .00020339  00000+0  69428-3 0  9991
2 63219  97.3987 324.7700 0004693 105.7930 254.3828 15.30343745 54855
